QIANFAN-193             
1 69411U 26125L   26199.59991796 -.01959056  00000+0 -17564+1 0  9998
2 69411  88.9942 276.9019 0015320  66.5877 293.6905 13.88172583  6148
QIANFAN-194             
1 69412U 26125M   26199.66664406 -.01972549  00000+0 -17349+1 0  9995
2 69412  88.9944 276.8944 0013867  66.1326 294.1298 13.89328075  6147
QIANFAN-195             
1 69413U 26125N   26199.48826838 -.02035559  00000+0 -16779+1 0  9993
2 69413  88.9941 276.9042 0021684  75.8931 284.4652 13.93143174  6135
QIANFAN-196             
1 69414U 26125P   26199.06260985 -.02133845  00000+0 -18153+1 0  9998
2 69414  88.9932 276.9494 0021714  81.1048 279.2583 13.91523492  6071
QIANFAN-197             
1 69415U 26125Q   26198.90892801 -.01828013  00000+0 -14904+1 0  9996
2 69415  88.9942 276.9659 0020910  77.0099 283.3409 13.94017507  6041
QIANFAN-198             
1 69416U 26125R   26199.13555012 -.02017648  00000+0 -16612+1 0  9996
2 69416  88.9936 276.9433 0019809  68.3700 291.9583 13.93193027  6085
QIANFAN-199             
1 69417U 26125S   26198.93568760 -.02046995  00000+0 -15462+1 0  9997
2 69417  88.9943 276.9517 0020735  61.7138 298.6129 13.98172040  6064
QIANFAN-200             
1 69418U 26125T   26198.90808838 -.02040003  00000+0 -17845+1 0  9999
2 69418  88.9930 276.9833 0014331  71.1337 289.1388 13.89777980  6047
QIANFAN-201             
1 69800U 26153A   26199.18856381 -.01723216  00000+0 -84414+0 0  9990
2 69800  88.9921 358.7016 0006905 149.7286 210.4306 14.22000035  1979
QIANFAN-202             
1 69801U 26153B   26199.84951852  .00000171  00000+0  75477-4 0  9992
2 69801  88.9927 358.6330 0007089 163.4691 196.6730 14.18843900  2069
QIANFAN-203             
1 69802U 26153C   26199.34660293 -.01871829  00000+0 -99096+0 0  9991
2 69802  88.9920 358.6881 0012649 191.3457 168.7448 14.17511061  1998
QIANFAN-204             
1 69803U 26153D   26199.84484091  .00000129  00000+0  53604-4 0  9991
2 69803  88.9927 358.6322 0008047 166.9097 193.2304 14.20114619  2066
QIANFAN-205             
1 69804U 26153E   26199.84168580  .00000103  00000+0  39666-4 0  9998
2 69804  88.9926 358.6315 0007949 170.7350 189.3990 14.22264878  2065
QIANFAN-206             
1 69805U 26153F   26199.83101066  .00000044  00000+0  12973-4 0  9990
2 69805  88.9926 358.6300 0008430 171.4120 188.7218 14.24034641  2060
QIANFAN-207             
1 69806U 26153G   26199.82922186  .00000141  00000+0  54708-4 0  9994
2 69806  88.9926 358.6298 0007870 171.4942 188.6385 14.24251159  2065
QIANFAN-208             
1 69807U 26153H   26199.82570027  .00000160  00000+0  61508-4 0  9995
2 69807  88.9926 358.6292 0008659 172.2142 187.9187 14.25462867  2060
